start=new Date('2023-04-21T00:00:00.000Z').valueOf();
sats=[{"COUNTRY_CODE":"US","APOAPSIS":"547.855","EPOCH":"2023-04-20T04:22:17.466240","OBJECT_NAME":"STARLINK-2602","SITE":"AFETR","RCS_SIZE":"LARGE","FILE":"3890827","GP_ID":"230426392","MEAN_MOTION":"15.06458177","OBJECT_TYPE":"PAYLOAD","OBJECT_ID":"2021-038AS","MEAN_MOTION_DDOT":"0.0000000000000","TLE_LINE1":"1 48393U 21038AS  23110.18214660  .00041110  00000-0  27584-2 0  9991","REV_AT_EPOCH":"10958","ARG_OF_PERICENTER":"75.4901","RA_OF_ASC_NODE":"35.4859","TIME_SYSTEM":"UTC","MEAN_ANOMALY":"284.6219","ELEMENT_SET_NO":"999","INCLINATION":"53.0561","CLASSIFICATION_TYPE":"U","NORAD_CAT_ID":"48393","EPHEMERIS_TYPE":"0","MEAN_ELEMENT_THEORY":"SGP4","BSTAR":"0.00275840000000","MEAN_MOTION_DOT":"0.00041110","DECAY_DATE":null,"SEMIMAJOR_AXIS":"6925.170","PERIOD":"95.588","CENTER_NAME":"EARTH","LAUNCH_DATE":"2021-05-04","ECCENTRICITY":"0.00011840","REF_FRAME":"TEME","PERIAPSIS":"546.215","TLE_LINE2":"2 48393  53.0561  35.4859 0001184  75.4901 284.6219 15.06458177109582"},{"MEAN_ANOMALY":"240.8627","INCLINATION":"53.0562","ELEMENT_SET_NO":"999","CLASSIFICATION_TYPE":"U","NORAD_CAT_ID":"48394","EPHEMERIS_TYPE":"0","BSTAR":"0.00291260000000","MEAN_ELEMENT_THEORY":"SGP4","DECAY_DATE":null,"MEAN_MOTION_DOT":"0.00043456","PERIOD":"95.587","SEMIMAJOR_AXIS":"6925.123","CENTER_NAME":"EARTH","LAUNCH_DATE":"2021-05-04","ECCENTRICITY":"0.00009020","TLE_LINE2":"2 48394  53.0562  35.5023 0000902 119.2453 240.8627 15.06473473109587","REF_FRAME":"TEME","PERIAPSIS":"546.364","COUNTRY_CODE":"US","APOAPSIS":"547.613","EPOCH":"2023-04-20T04:16:58.763424","OBJECT_NAME":"STARLINK-2573","SITE":"AFETR","RCS_SIZE":"LARGE","GP_ID":"230426642","FILE":"3890827","OBJECT_TYPE":"PAYLOAD","OBJECT_ID":"2021-038AT","MEAN_MOTION":"15.06473473","TLE_LINE1":"1 48394U 21038AT  23110.17845791  .00043456  00000-0  29126-2 0  9995","MEAN_MOTION_DDOT":"0.0000000000000","REV_AT_EPOCH":"10958","RA_OF_ASC_NODE":"35.5023","ARG_OF_PERICENTER":"119.2453","TIME_SYSTEM":"UTC"},{"APOAPSIS":"547.878","EPOCH":"2023-04-20T05:20:43.764864","COUNTRY_CODE":"US","SITE":"AFETR","RCS_SIZE":"LARGE","OBJECT_NAME":"STARLINK-2574","MEAN_MOTION_DDOT":"0.0000000000000","TLE_LINE1":"1 48395U 21038AU  23110.22272876  .00036287  00000-0  24363-2 0  9992","FILE":"3890827","GP_ID":"230427894","MEAN_MOTION":"15.06494272","OBJECT_ID":"2021-038AU","OBJECT_TYPE":"PAYLOAD","TIME_SYSTEM":"UTC","REV_AT_EPOCH":"10958","ARG_OF_PERICENTER":"109.7257","RA_OF_ASC_NODE":"35.9289","CLASSIFICATION_TYPE":"U","NORAD_CAT_ID":"48395","MEAN_ANOMALY":"250.3881","ELEMENT_SET_NO":"999","INCLINATION":"53.0569","MEAN_ELEMENT_THEORY":"SGP4","BSTAR":"0.00243630000000","MEAN_MOTION_DOT":"0.00036287","DECAY_DATE":null,"EPHEMERIS_TYPE":"0","LAUNCH_DATE":"2021-05-04","SEMIMAJOR_AXIS":"6925.060","PERIOD":"95.586","CENTER_NAME":"EARTH","REF_FRAME":"TEME","PERIAPSIS":"545.971","TLE_LINE2":"2 48395  53.0569  35.9289 0001377 109.7257 250.3881 15.06494272109584","ECCENTRICITY":"0.00013770"},{"MEAN_MOTION":"15.06369344","OBJECT_TYPE":"PAYLOAD","OBJECT_ID":"2021-038AV","FILE":"3890990","GP_ID":"230435675","MEAN_MOTION_DDOT":"0.0000000000000","TLE_LINE1":"1 48396U 21038AV  23110.44016626 -.00051786  00000-0 -34858-2 0  9999","ARG_OF_PERICENTER":"52.1856","RA_OF_ASC_NODE":"34.3258","REV_AT_EPOCH":"10899","TIME_SYSTEM":"UTC","COUNTRY_CODE":"US","APOAPSIS":"548.875","EPOCH":"2023-04-20T10:33:50.364864","OBJECT_NAME":"STARLINK-2575","RCS_SIZE":"LARGE","SITE":"AFETR","CENTER_NAME":"EARTH","SEMIMAJOR_AXIS":"6925.443","PERIOD":"95.594","LAUNCH_DATE":"2021-05-04","ECCENTRICITY":"0.00022640","REF_FRAME":"TEME","PERIAPSIS":"545.740","TLE_LINE2":"2 48396  53.0544  34.3258 0002264  52.1856 307.9338 15.06369344108990","ELEMENT_SET_NO":"999","INCLINATION":"53.0544","MEAN_ANOMALY":"307.9338","NORAD_CAT_ID":"48396","CLASSIFICATION_TYPE":"U","EPHEMERIS_TYPE":"0","MEAN_MOTION_DOT":"-0.00051786","DECAY_DATE":null,"MEAN_ELEMENT_THEORY":"SGP4","BSTAR":"-0.00348580000000"},{"LAUNCH_DATE":"2021-05-04","CENTER_NAME":"EARTH","SEMIMAJOR_AXIS":"6925.006","PERIOD":"95.585","REF_FRAME":"TEME","PERIAPSIS":"545.968","TLE_LINE2":"2 48397  53.0552  35.5352 0001304  92.5830 267.5308 15.06511719108951","ECCENTRICITY":"0.00013040","NORAD_CAT_ID":"48397","CLASSIFICATION_TYPE":"U","ELEMENT_SET_NO":"999","INCLINATION":"53.0552","MEAN_ANOMALY":"267.5308","MEAN_MOTION_DOT":"0.00034616","DECAY_DATE":null,"BSTAR":"0.00232440000000","MEAN_ELEMENT_THEORY":"SGP4","EPHEMERIS_TYPE":"0","MEAN_MOTION_DDOT":"0.0000000000000","TLE_LINE1":"1 48397U 21038AW  23110.17103835  .00034616  00000-0  23244-2 0  9997","MEAN_MOTION":"15.06511719","OBJECT_ID":"2021-038AW","OBJECT_TYPE":"PAYLOAD","FILE":"3890990","GP_ID":"230435676","TIME_SYSTEM":"UTC","ARG_OF_PERICENTER":"92.5830","RA_OF_ASC_NODE":"35.5352","REV_AT_EPOCH":"10895","APOAPSIS":"547.774","EPOCH":"2023-04-20T04:06:17.713440","COUNTRY_CODE":"US","RCS_SIZE":"LARGE","SITE":"AFETR","OBJECT_NAME":"STARLINK-2590"},{"EPOCH":"2023-04-20T05:36:32.399712","APOAPSIS":"547.758","COUNTRY_CODE":"US","RCS_SIZE":"LARGE","SITE":"AFETR","OBJECT_NAME":"STARLINK-2588","MEAN_MOTION_DDOT":"0.0000000000000","TLE_LINE1":"1 48398U 21038AX  23110.23370833  .00032902  00000-0  22117-2 0  9993","MEAN_MOTION":"15.06495861","OBJECT_ID":"2021-038AX","OBJECT_TYPE":"PAYLOAD","FILE":"3890827","GP_ID":"230427143","TIME_SYSTEM":"UTC","ARG_OF_PERICENTER":"98.7104","RA_OF_ASC_NODE":"35.2505","REV_AT_EPOCH":"10959","NORAD_CAT_ID":"48398","CLASSIFICATION_TYPE":"U","ELEMENT_SET_NO":"999","INCLINATION":"53.0544","MEAN_ANOMALY":"261.4022","MEAN_MOTION_DOT":"0.00032902","DECAY_DATE":null,"MEAN_ELEMENT_THEORY":"SGP4","BSTAR":"0.00221170000000","EPHEMERIS_TYPE":"0","LAUNCH_DATE":"2021-05-04","CENTER_NAME":"EARTH","SEMIMAJOR_AXIS":"6925.055","PERIOD":"95.586","REF_FRAME":"TEME","PERIAPSIS":"546.082","TLE_LINE2":"2 48398  53.0544  35.2505 0001210  98.7104 261.4022 15.06495861109594","ECCENTRICITY":"0.00012100"},{"BSTAR":"0.00238340000000","MEAN_ELEMENT_THEORY":"SGP4","DECAY_DATE":null,"MEAN_MOTION_DOT":"0.00035522","EPHEMERIS_TYPE":"0","CLASSIFICATION_TYPE":"U","NORAD_CAT_ID":"48399","MEAN_ANOMALY":"249.7246","INCLINATION":"53.0560","ELEMENT_SET_NO":"999","TLE_LINE2":"2 48399  53.0560  35.5657 0001590 110.3913 249.7246 15.06528478109570","REF_FRAME":"TEME","PERIAPSIS":"545.719","ECCENTRICITY":"0.00015900","LAUNCH_DATE":"2021-05-04","PERIOD":"95.584","SEMIMAJOR_AXIS":"6924.955","CENTER_NAME":"EARTH","SITE":"AFETR","RCS_SIZE":"LARGE","OBJECT_NAME":"STARLINK-2587","APOAPSIS":"547.921","EPOCH":"2023-04-20T03:55:37.250112","COUNTRY_CODE":"US","TIME_SYSTEM":"UTC","REV_AT_EPOCH":"10957","RA_OF_ASC_NODE":"35.5657","ARG_OF_PERICENTER":"110.3913","TLE_LINE1":"1 48399U 21038AY  23110.16362558  .00035522  00000-0  23834-2 0  9999","MEAN_MOTION_DDOT":"0.0000000000000","GP_ID":"230427394","FILE":"3890827","OBJECT_ID":"2021-038AY","OBJECT_TYPE":"PAYLOAD","MEAN_MOTION":"15.06528478"},{"EPHEMERIS_TYPE":"0","MEAN_MOTION_DOT":"0.00024501","DECAY_DATE":null,"MEAN_ELEMENT_THEORY":"SGP4","BSTAR":"0.00165680000000","ELEMENT_SET_NO":"999","INCLINATION":"53.0553","MEAN_ANOMALY":"253.2635","NORAD_CAT_ID":"48400","CLASSIFICATION_TYPE":"U","ECCENTRICITY":"0.00010140","REF_FRAME":"TEME","PERIAPSIS":"546.427","TLE_LINE2":"2 48400  53.0553  35.2851 0001014 106.8466 253.2635 15.06427411108376","CENTER_NAME":"EARTH","SEMIMAJOR_AXIS":"6925.265","PERIOD":"95.590","LAUNCH_DATE":"2021-05-04","OBJECT_NAME":"STARLINK-2576","RCS_SIZE":"LARGE","SITE":"AFETR","COUNTRY_CODE":"US","EPOCH":"2023-04-20T05:25:59.232000","APOAPSIS":"547.832","ARG_OF_PERICENTER":"106.8466","RA_OF_ASC_NODE":"35.2851","REV_AT_EPOCH":"10837","TIME_SYSTEM":"UTC","MEAN_MOTION":"15.06427411","OBJECT_ID":"2021-038AZ","OBJECT_TYPE":"PAYLOAD","FILE":"3890827","GP_ID":"230428145","MEAN_MOTION_DDOT":"0.0000000000000","TLE_LINE1":"1 48400U 21038AZ  23110.22638000  .00024501  00000-0  16568-2 0  9998"},{"LAUNCH_DATE":"2021-05-04","CENTER_NAME":"EARTH","PERIOD":"95.587","SEMIMAJOR_AXIS":"6925.100","TLE_LINE2":"2 48401  53.0551  36.0232 0000770  93.5816 266.5261 15.06481187108345","REF_FRAME":"TEME","PERIAPSIS":"546.432","ECCENTRICITY":"0.00007700","NORAD_CAT_ID":"48401","CLASSIFICATION_TYPE":"U","INCLINATION":"53.0551","ELEMENT_SET_NO":"999","MEAN_ANOMALY":"266.5261","DECAY_DATE":null,"MEAN_MOTION_DOT":"0.00044687","BSTAR":"0.00299340000000","MEAN_ELEMENT_THEORY":"SGP4","EPHEMERIS_TYPE":"0","TLE_LINE1":"1 48401U 21038BA  23110.06418078  .00044687  00000-0  29934-2 0  9990","MEAN_MOTION_DDOT":"0.0000000000000","OBJECT_TYPE":"PAYLOAD","OBJECT_ID":"2021-038BA","MEAN_MOTION":"15.06481187","GP_ID":"230426393","FILE":"3890827","TIME_SYSTEM":"UTC","RA_OF_ASC_NODE":"36.0232","ARG_OF_PERICENTER":"93.5816","REV_AT_EPOCH":"10834","APOAPSIS":"547.498","EPOCH":"2023-04-20T01:32:25.219392","COUNTRY_CODE":"US","RCS_SIZE":"LARGE","SITE":"AFETR","OBJECT_NAME":"STARLINK-2571"},{"LAUNCH_DATE":"2021-05-04","CENTER_NAME":"EARTH","PERIOD":"95.589","SEMIMAJOR_AXIS":"6925.176","TLE_LINE2":"2 48402  53.0554  35.2953 0000919 134.2565 225.8500 15.06456447108962","REF_FRAME":"TEME","PERIAPSIS":"546.404","ECCENTRICITY":"0.00009190","NORAD_CAT_ID":"48402","CLASSIFICATION_TYPE":"U","INCLINATION":"53.0554","ELEMENT_SET_NO":"999","MEAN_ANOMALY":"225.8500","DECAY_DATE":null,"MEAN_MOTION_DOT":"0.00036235","BSTAR":"0.00243530000000","MEAN_ELEMENT_THEORY":"SGP4","EPHEMERIS_TYPE":"0","TLE_LINE1":"1 48402U 21038BB  23110.22173961  .00036235  00000-0  24353-2 0  9998","MEAN_MOTION_DDOT":"0.0000000000000","OBJECT_TYPE":"PAYLOAD","OBJECT_ID":"2021-038BB","MEAN_MOTION":"15.06456447","GP_ID":"230435690","FILE":"3890976","TIME_SYSTEM":"UTC","RA_OF_ASC_NODE":"35.2953","ARG_OF_PERICENTER":"134.2565","REV_AT_EPOCH":"10896","APOAPSIS":"547.677","EPOCH":"2023-04-20T05:19:18.302304","COUNTRY_CODE":"US","RCS_SIZE":"LARGE","SITE":"AFETR","OBJECT_NAME":"STARLINK-2560"}];
